[{"OBJECT_NAME":"STARLINK-34831","OBJECT_ID":"2025-189Y","EPOCH":"2026-03-09T14:27:04.909824","MEAN_MOTION":15.30195782,"ECCENTRICITY":0.0001056,"INCLINATION":53.1574,"RA_OF_ASC_NODE":207.1267,"ARG_OF_PERICENTER":76.9728,"MEAN_ANOMALY":283.139,"EPHEMERIS_TYPE":0,"CLASSIFICATION_TYPE":"U","NORAD_CAT_ID":65345,"ELEMENT_SET_NO":999,"REV_AT_EPOCH":3110,"BSTAR":0.0014582,"MEAN_MOTION_DOT":0.00043074,"MEAN_MOTION_DDOT":0},{"OBJECT_NAME":"SPACEMOBILE-005 DEB","OBJECT_ID":"2024-163K","EPOCH":"2026-03-09T07:33:15.902496","MEAN_MOTION":15.31481997,"ECCENTRICITY":0.00072885,"INCLINATION":52.9762,"RA_OF_ASC_NODE":31.7924,"ARG_OF_PERICENTER":175.8731,"MEAN_ANOMALY":184.2329,"EPHEMERIS_TYPE":0,"CLASSIFICATION_TYPE":"U","NORAD_CAT_ID":62373,"ELEMENT_SET_NO":999,"REV_AT_EPOCH":8280,"BSTAR":0.00063853778,"MEAN_MOTION_DOT":0.00019381,"MEAN_MOTION_DDOT":0}]
